title,company,city,state,zipcode,payLow,payHigh,payType
Writer,Beverly Hills Office,Beverly Hills,CA,90210,25,30,hour
INVESTIGATOR,US Defense Counterintelligence and Security Agency,Sacramento,CA,null,49014,63714,year
Assistant County Executive Officer,Placer County,Auburn,CA,null,177819,222061,year
Investigative Assistant (OA),US Drug Enforcement Administration,Riverside,CA,null,46295,66872,year
Admin with Excel,Employment Solutions,San Bernardino,CA,00000,20,40,hour
Biological Science Technician,U.S. Fish and Wildlife Service,Lodi,CA,null,49458,71441,year
Program Associate Social Impact,Google,San Francisco,CA,null,0,0,null
Ecologist,US National Park Service,Ventura,CA,null,51444,98970,year
Park Guide,US National Park Service,Sequoia National,CA,null,36118,46953,year
A&R Assistant,Warner Music Group,Los Angeles,CA,90028,0,0,null
Community Development Technician,City of Fremont,Fremont,CA,94538,78149,94990,year
ER Technician,BestNest Management,Anaheim,CA,null,30,40,hour
BACKGROUND DESIGNER,Nickelodeon Animation,Burbank,CA,91502,0,0,null
Emergency Management Specialist (Recovery),US Federal Emergency Management Agency,Oakland,CA,null,97490,126742,year
IMMIGRATION SERVICES OFFICER,US Citizenship and Immigration Services,San Jose,CA,null,67226,126742,year
Remote Summer Reading Teacher,Institute Of Reading Development Inc,Remote in,null,null,600,700,week
IMMIGRATION SERVICES OFFICER,US Citizenship and Immigration Services,San Jose,CA,null,67226,126742,year
Environmental Sustainability Analyst,City of Malibu CA,Malibu,CA,null,79563,103812,year
ER Technician,BestNest Management,Anaheim,CA,null,30,40,hour
Digital Store Support Coordinator Client Care Services, Wes...,Louis Vuitton,San Dimas,CA,null,0,0,null
Administrative Assistant,Town of Los Gatos,Los Gatos,CA,null,28.58,37.06,hour
Professional Test Scorer (Remote),Pearson,Remote in,CA,null,0,0,null
Investigator,CA Department of Insurance,Sacramento,CA,95814,5003,9087,month
Emergency Management Specialist (Recovery),US Federal Emergency Management Agency,Oakland,CA,null,97490,126742,year
City Clerk,City of Palm Springs CA,Palm Springs,CA,null,126432,169956,year
JAILER,Huntington Park,Huntington Park,CA,90255,5256,5256,month
Client Advisor,Louis Vuitton,Costa Mesa,CA,92626,0,0,null
Biological Science Technician,US National Park Service,Barstow,CA,null,46295,60183,year
Natural Resources Specialist,US Bureau of Land Management,Barstow,CA,null,44740,81805,year
Human Resources Specialist Entry Level,U.S. Government,Inglewood,CA,null,Up,7000,month
Human Resources Specialist Entry Level,U.S. Government,Inglewood,CA,null,Up,7000,month
Park Maintenance Worker I,City of Fremont,Fremont,CA,94538,63378,77024,year
Limited Series & Movies Development Trainee â€“ Spring 2022,Sony Pictures Entertainment Inc.,Remote in,CA,null,0,0,null
Dispatcher,Amazon DSP,Bloomington,CA,92316,0,0,null
Bookseller (Seasonal),Barnes & Noble College,Riverside,CA,92521,0,0,null
Code Enforcement Officer I/II,City of Fremont,Fremont,CA,94538,74506,90556,year
Child Support Specialist,Placer County,Auburn,CA,null,44762,55910,year
Office Technician**New Opening**,Los Angeles Unified School District,Los Angeles,CA,90017,15.77,21.51,hour
Bookseller,Barnes & Noble,Sacramento,CA,95815,0,0,null
Forensic Pathologist,Stanislaus County,Oakdale,CA,null,293134,439691,year
COVID,United Care Line,Los Angeles,CA,null,20,40,hour
Storyboard Revisionist (Kamp Koral),Nickelodeon Animation,Burbank,CA,91502,0,0,null
Deputy City Clerk,City of Malibu CA,Malibu,CA,null,67059,87495,year
User Support Associate,TikTok,Los Angeles,CA,null,0,0,null
LOCAL 174 Mail Clerk,Sony Pictures Entertainment Inc.,Culver City,CA,null,0,0,null
Deputy City Clerk,City of Malibu CA,Malibu,CA,null,67059,87495,year
User Support Associate,TikTok,Los Angeles,CA,null,0,0,null
LOCAL 174 Mail Clerk,Sony Pictures Entertainment Inc.,Culver City,CA,null,0,0,null
Entry Level Careers,U.S. Government,Los Angeles,CA,null,Up,7000,month
Originals Reporting Analyst,Hulu,Santa Monica,CA,90404,0,0,null
City Manager,City of Pasadena CA,Pasadena,CA,null,301930,301930,year
Provisions Operations & Finance Analyst,Patagonia Inc,Sausalito,CA,94965,0,0,null
ER Technician,BestNest Management,Anaheim,CA,null,30,40,hour
Administrative Assistant,TSA (Transportation Security Administration),Los Angeles,CA,null,44364,66623,year
SUPERVISORY RECORDS MANAGEMENT SPECIALIST,US Citizenship and Immigration Services,San Francisco,CA,null,97490,126742,year
Streaming Media Assistant,Disney Streaming,San Francisco,CA,null,0,0,null
LIBRARY ASSISTANT,City of Newport Beach CA,Newport Beach,CA,null,23.99,33.71,hour
Florence At Home Advisor,Florence Inc.,Remote in,CA,null,25,25,hour
Content Policy Analyst Nudity & Sexual Activity,TikTok,Los Angeles,CA,null,0,0,null
Administrative Assistant I Hulu SVOD Content Partnerships,Hulu,Santa Monica,CA,90404,0,0,null
Sports Scientist,Red Bull,Santa Monica,CA,null,0,0,null
Representative,Southwest Gas,Victorville,CA,92395,15.93,20.94,hour
Administrative Assistant,TSA (Transportation Security Administration),Los Angeles,CA,null,44364,66623,year
Public Information Assistant,Placer County,Auburn,CA,null,75629,94432,year
Associate Customer Service Representative,California Water Service,Commerce,CA,90040,25.89,30.22,hour
Administrative Assistant I Hulu SVOD Content Partnerships,Hulu,Santa Monica,CA,90404,0,0,null
Librarian Research and Special Projects,Academy of Motion Picture Arts and Sciences,Beverly Hills,CA,90211,0,0,null
Park Ranger (Interpretation,US National Park Service,Agoura Hills,CA,null,17.31,27.87,hour
Water Distribution Worker,The Gage Canal Company,Riverside,CA,null,20,35,hour
Package Handler/Sorter,U.S. Government,Cypress,CA,null,18,26,hour
Marine Interdiction Agent,US Customs and Border Protection,Long Beach,CA,null,56551,72970,year
Retirement Benefits Counselor,California Public Employees' Retirement System...,Glendale,CA,91203,3448,5604,month
Content Moderator I Contract,WEBTOON Entertainment,Los Angeles,CA,90036,0,0,null
PROFESSIONAL NANNY FOR HIGH PROFILE CLIENT IN BEVERLY HILLS...,Poppy Lane Placements,Los Angeles,CA,null,70000,100000,year
Group Program Manager,County of San Diego,San Diego,CA,null,108000,115000,year
